NORAD_CAT_ID,OBJECT_NAME,OBJECT_TYPE,EPOCH,MEAN_MOTION,ECCENTRICITY,INCLINATION,RA_OF_ASC_NODE,ARG_OF_PERICENTER,MEAN_ANOMALY,BSTAR,MEAN_MOTION_DOT,MEAN_MOTION_DDOT,TLE_LINE0,TLE_LINE1,TLE_LINE2,SEMIMAJOR_AXIS,PERIOD,APOGEE,PERIGEE,DECAYED
54168.0,STARLINK-5245,PAYLOAD,2023-12-26 01:17:26,15.08832782,0.0001653,53.2194,16.3601,80.4809,279.637,3.5641e-05,2.79e-06,0.0,0 STARLINK-5245,1 54168U 22141M   23360.05377633  .00000279  00000-0  35641-4 0  9993,2 54168  53.2194  16.3601 0001653  80.4809 279.6370 15.08832782 64380,6917.902,95.438,540.911,538.624,0.0
54168.0,STARLINK-5245,PAYLOAD,2023-12-26 10:49:44,15.08843222,0.0001634,53.2193,14.5769,81.3188,278.7989,2.2187e-05,6.5e-07,0.0,0 STARLINK-5245,1 54168U 22141M   23360.45121088  .00000065  00000-0  22187-4 0  9992,2 54168  53.2193  14.5769 0001634  81.3188 278.7989 15.08843222 64447,6917.871,95.437,540.866,538.605,0.0
54168.0,STARLINK-5245,PAYLOAD,2023-12-27 07:29:44,15.08849345,0.000158,53.2192,10.7108,84.5786,275.5387,2.3218e-05,8.2e-07,0.0,0 STARLINK-5245,1 54168U 22141M   23361.31232605  .00000082  00000-0  23218-4 0  9991,2 54168  53.2192  10.7108 0001580  84.5786 275.5387 15.08849345 64573,6917.852,95.437,540.81,538.624,0.0
54168.0,STARLINK-5245,PAYLOAD,2023-12-28 04:09:46,15.08838903,0.0001688,53.2194,6.8449,102.2587,257.8594,6.5083e-05,7.48e-06,0.0,0 STARLINK-5245,1 54168U 22141M   23362.17345071  .00000748  00000-0  65083-4 0  9993,2 54168  53.2194   6.8449 0001688 102.2587 257.8594 15.08838903 64701,6917.884,95.438,540.916,538.581,0.0
54168.0,STARLINK-5245,PAYLOAD,2023-12-28 07:20:32,15.08839091,0.0001686,53.2194,6.2503,96.0712,264.0473,6.4142e-05,7.33e-06,0.0,0 STARLINK-5245,1 54168U 22141M   23362.30593130  .00000733  00000-0  64142-4 0  9998,2 54168  53.2194   6.2503 0001686  96.0712 264.0473 15.08839091 64721,6917.883,95.438,540.915,538.582,0.0
54168.0,STARLINK-5245,PAYLOAD,2023-12-29 04:00:33,15.08835317,0.0001792,53.2198,2.3882,102.2301,257.8891,-1.2308e-05,-4.84e-06,0.0,0 STARLINK-5245,1 54168U 22141M   23363.16705732 -.00000484  00000-0 -12308-4 0  9998,2 54168  53.2198   2.3882 0001792 102.2301 257.8891 15.08835317 64859,6917.895,95.438,540.999,538.52,0.0
54168.0,STARLINK-5245,PAYLOAD,2023-12-29 07:11:19,15.0883675,0.0001765,53.2196,1.7931,100.0707,260.0484,-1.4664e-06,-3.11e-06,0.0,0 STARLINK-5245,1 54168U 22141M   23363.29953667 -.00000311  00000-0 -14664-5 0  9991,2 54168  53.2196   1.7931 0001765 100.0707 260.0484 15.08836750 64879,6917.89,95.438,540.976,538.534,0.0
54168.0,STARLINK-5245,PAYLOAD,2023-12-30 08:37:29,15.08842026,0.0001705,53.2193,357.0335,97.9962,262.1223,8.5706e-05,1.076e-05,0.0,0 STARLINK-5245,1 54168U 22141M   23364.35937227  .00001076  00000-0  85706-4 0  9994,2 54168  53.2193 357.0335 0001705  97.9962 262.1223 15.08842026 65038,6917.874,95.437,540.919,538.56,0.0
54168.0,STARLINK-5245,PAYLOAD,2023-12-31 03:42:08,15.08833048,0.0001699,53.2195,353.4605,94.5992,265.5194,2.7148e-05,1.44e-06,0.0,0 STARLINK-5245,1 54168U 22141M   23365.15426168  .00000144  00000-0  27148-4 0  9991,2 54168  53.2195 353.4605 0001699  94.5992 265.5194 15.08833048 65159,6917.902,95.438,540.942,538.591,0.0
54168.0,STARLINK-5245,PAYLOAD,2023-12-31 08:28:17,15.08836274,0.0001681,53.2194,352.5705,91.0899,269.0286,4.9788e-05,5.04e-06,0.0,0 STARLINK-5245,1 54168U 22141M   23365.35298030  .00000504  00000-0  49788-4 0  9992,2 54168  53.2194 352.5705 0001681  91.0899 269.0286 15.08836274 65186,6917.892,95.438,540.92,538.594,0.0
54168.0,STARLINK-5245,PAYLOAD,2024-01-01 08:19:03,15.08846164,0.0001708,53.2194,348.11,89.7474,270.3714,9.4282e-05,1.213e-05,0.0,0 STARLINK-5245,1 54168U 22141M   24001.34657353  .00001213  00000-0  94282-4 0  9993,2 54168  53.2194 348.1100 0001708  89.7474 270.3714 15.08846164 65336,6917.862,95.437,540.908,538.545,0.0
54168.0,STARLINK-5245,PAYLOAD,2024-01-02 03:23:42,15.08838509,0.0001872,53.2198,344.5377,77.3811,282.739,3.8271e-05,3.21e-06,0.0,0 STARLINK-5245,1 54168U 22141M   24002.14146017  .00000321  00000-0  38271-4 0  9997,2 54168  53.2198 344.5377 0001872  77.3811 282.7390 15.08838509 65450,6917.885,95.438,541.045,538.455,0.0
54168.0,STARLINK-5245,PAYLOAD,2024-01-02 08:09:51,15.0884064,0.0001753,53.2197,343.6465,83.4461,276.6731,3.828e-05,3.21e-06,0.0,0 STARLINK-5245,1 54168U 22141M   24002.34017875  .00000321  00000-0  38280-4 0  9998,2 54168  53.2197 343.6465 0001753  83.4461 276.6731 15.08840640 65487,6917.878,95.438,540.956,538.531,0.0
54168.0,STARLINK-5245,PAYLOAD,2024-01-03 03:14:28,15.08850119,0.0001563,53.2195,340.0777,101.6019,258.5149,-4.8345e-05,-1.058e-05,0.0,0 STARLINK-5245,1 54168U 22141M   24003.13505357 -.00001058  00000-0 -48345-4 0  9996,2 54168  53.2195 340.0777 0001563 101.6019 258.5149 15.08850119 65601,6917.849,95.437,540.796,538.633,0.0
54168.0,STARLINK-5245,PAYLOAD,2024-01-03 04:49:51,15.08850581,0.0001572,53.2193,339.7802,102.2307,257.8861,-3.5774e-05,-8.58e-06,0.0,0 STARLINK-5245,1 54168U 22141M   24003.20129242 -.00000858  00000-0 -35774-4 0  9998,2 54168  53.2193 339.7802 0001572 102.2307 257.8861 15.08850581 65617,6917.848,95.437,540.801,538.626,0.0
54168.0,STARLINK-5245,PAYLOAD,2024-01-04 03:05:16,15.08837289,0.0001635,53.219,335.6205,95.6834,264.4344,-1.0304e-05,-4.52e-06,0.0,0 STARLINK-5245,1 54168U 22141M   24004.12866047 -.00000452  00000-0 -10304-4 0  9993,2 54168  53.2190 335.6205 0001635  95.6834 264.4344 15.08837289 65751,6917.889,95.438,540.885,538.623,0.0
54168.0,STARLINK-5245,PAYLOAD,2024-01-04 04:40:39,15.08839285,0.0001627,53.2193,335.3245,93.3828,266.735,-1.7629e-05,-5.69e-06,0.0,0 STARLINK-5245,1 54168U 22141M   24004.19489978 -.00000569  00000-0 -17629-4 0  9990,2 54168  53.2193 335.3245 0001627  93.3828 266.7350 15.08839285 65765,6917.883,95.438,540.873,538.622,0.0
54168.0,STARLINK-5245,PAYLOAD,2024-01-04 22:09:53,15.08840336,0.000162,53.2186,332.0574,103.292,256.8253,-1.072e-05,-4.59e-06,0.0,0 STARLINK-5245,1 54168U 22141M   24004.92353927 -.00000459  00000-0 -10720-4 0  9998,2 54168  53.2186 332.0574 0001620 103.2920 256.8253 15.08840336 65876,6917.879,95.438,540.865,538.624,0.0
54168.0,STARLINK-5245,PAYLOAD,2024-01-05 04:31:26,15.08805857,0.0001979,53.2194,330.8717,112.2451,247.8751,0.000531,8.165e-05,0.0,0 STARLINK-5245,1 54168U 22141M   24005.18850055  .00008165  00000-0  53100-3 0  9999,2 54168  53.2194 330.8717 0001979 112.2451 247.8751 15.08805857 65913,6917.985,95.44,541.219,538.481,0.0
54168.0,STARLINK-5245,PAYLOAD,2024-01-05 07:42:12,15.08846966,0.0001602,53.2187,330.2714,99.9016,260.2157,5.3178e-05,5.59e-06,0.0,0 STARLINK-5245,1 54168U 22141M   24005.32097236  .00000559  00000-0  53178-4 0  9994,2 54168  53.2187 330.2714 0001602  99.9016 260.2157 15.08846966 65934,6917.859,95.437,540.832,538.616,0.0
54168.0,STARLINK-5245,PAYLOAD,2024-01-05 22:00:41,15.08833817,0.0001594,53.2187,327.5932,98.7313,261.386,1.7384e-05,-1.1e-07,0.0,0 STARLINK-5245,1 54168U 22141M   24005.91714296 -.00000011  00000-0  17384-4 0  9994,2 54168  53.2187 327.5932 0001594  98.7313 261.3860 15.08833817 66027,6917.899,95.438,540.867,538.662,0.0
54168.0,STARLINK-5245,PAYLOAD,2024-01-06 02:46:50,15.08834845,0.0001636,53.2192,326.7012,93.7436,266.3743,2.3823e-05,9.1e-07,0.0,0 STARLINK-5245,1 54168U 22141M   24006.11586295  .00000091  00000-0  23823-4 0  9995,2 54168  53.2192 326.7012 0001636  93.7436 266.3743 15.08834845 66051,6917.896,95.438,540.893,538.629,0.0
54168.0,STARLINK-5245,PAYLOAD,2024-01-07 04:13:00,15.08844032,0.0001595,53.219,321.9435,88.8715,271.246,1.6459e-05,-2.6e-07,0.0,0 STARLINK-5245,1 54168U 22141M   24007.17569976 -.00000026  00000-0  16459-4 0  9995,2 54168  53.2190 321.9435 0001595  88.8715 271.2460 15.08844032 66212,6917.868,95.437,540.836,538.63,0.0
54168.0,STARLINK-5245,PAYLOAD,2024-01-07 05:48:23,15.08845877,0.0001666,53.2194,321.646,95.2136,264.9046,3.3537e-05,2.46e-06,0.0,0 STARLINK-5245,1 54168U 22141M   24007.24193786  .00000246  00000-0  33537-4 0  9994,2 54168  53.2194 321.6460 0001666  95.2136 264.9046 15.08845877 66227,6917.862,95.437,540.88,538.575,0.0
54168.0,STARLINK-5245,PAYLOAD,2024-01-08 04:03:47,15.08837775,0.0001734,53.2199,317.487,96.0115,264.1075,6.1015e-05,6.83e-06,0.0,0 STARLINK-5245,1 54168U 22141M   24008.16930381  .00000683  00000-0  61015-4 0  9993,2 54168  53.2199 317.4870 0001734  96.0115 264.1075 15.08837775 66369,6917.887,95.438,540.952,538.553,0.0
54168.0,STARLINK-5245,PAYLOAD,2024-01-08 05:39:10,15.08838974,0.0001646,53.2192,317.1848,91.8343,268.2837,6.502e-05,7.47e-06,0.0,0 STARLINK-5245,1 54168U 22141M   24008.23554270  .00000747  00000-0  65020-4 0  9991,2 54168  53.2192 317.1848 0001646  91.8343 268.2837 15.08838974 66376,6917.884,95.438,540.887,538.61,0.0
54168.0,STARLINK-5245,PAYLOAD,2024-01-09 03:54:35,15.08841541,0.0001565,53.2182,313.0279,86.3688,273.7483,-7.7031e-06,-4.11e-06,0.0,0 STARLINK-5245,1 54168U 22141M   24009.16290650 -.00000411  00000-0 -77031-5 0  9999,2 54168  53.2182 313.0279 0001565  86.3688 273.7483 15.08841541 66517,6917.876,95.437,540.823,538.658,0.0
54168.0,STARLINK-5245,PAYLOAD,2024-01-09 19:48:26,15.08844294,0.0001512,53.2188,310.0515,84.326,275.7904,4.5076e-05,4.3e-06,0.0,0 STARLINK-5245,1 54168U 22141M   24009.82530356  .00000430  00000-0  45076-4 0  9994,2 54168  53.2188 310.0515 0001512  84.3260 275.7904 15.08844294 66618,6917.867,95.437,540.778,538.686,0.0
54168.0,STARLINK-5245,PAYLOAD,2024-01-10 05:20:44,15.08854487,0.0001732,53.2198,308.2656,86.8471,273.2719,0.00016197,2.292e-05,0.0,0 STARLINK-5245,1 54168U 22141M   24010.22273201  .00002292  00000-0  16197-3 0  9992,2 54168  53.2198 308.2656 0001732  86.8471 273.2719 15.08854487 66677,6917.836,95.437,540.899,538.503,0.0
54168.0,STARLINK-5245,PAYLOAD,2024-01-11 02:00:45,15.08842252,0.0001481,53.2188,304.4028,88.8252,271.2909,1.8194e-05,2e-08,0.0,0 STARLINK-5245,1 54168U 22141M   24011.08386469  .00000002  00000-0  18194-4 0  9995,2 54168  53.2188 304.4028 0001481  88.8252 271.2909 15.08842252 66808,6917.874,95.437,540.763,538.714,0.0
